{"type": "FeatureCollection", "name": "earmarked_forests", "features": [{"type": "Feature", "properties": {"fid": 1, "Forest_Name": "Maju Forest"}, "geometry": {"type": "Polygon", "coordinates": [[[103.76844938651216, 1.3240606811975377], [103.7702609376906, 1.3288023806131455], [103.77087576718148, 1.328967022790636], [103.77504782444088, 1.326255913537968], [103.77493803346039, 1.3260034619178482], [103.77381816545916, 1.3254985586003707], [103.7727971093404, 1.3254327016383265], [103.77166626224115, 1.325290011547888], [103.77062324792628, 1.3245546086437439], [103.7693826098465, 1.3237204200106758], [103.76844938651216, 1.323808229353691], [103.76844938651216, 1.3240606811975377]]]}}, {"type": "Feature", "properties": {"fid": 2, "Forest_Name": "Eng Neo Forest"}, "geometry": {"type": "Polygon", "coordinates": [[[103.79710929931032, 1.348019397439995], [103.79684881870809, 1.3444749456616691], [103.79738425105717, 1.3440119964777046], [103.79857088491195, 1.342955893323373], [103.79891819238163, 1.342160198864537], [103.79831040430967, 1.3403952029592625], [103.79747107792458, 1.339237827904412], [103.79780391424973, 1.337386026679997], [103.79884583665878, 1.3371111498166044], [103.8012769889466, 1.3383119274669832], [103.80373708352356, 1.3385434026091219], [103.80543020743828, 1.3385434026091216], [103.80595116864279, 1.3387025417566665], [103.80622612038962, 1.3389629512485486], [103.79886030780335, 1.3465003473088715], [103.79802098141826, 1.34738284321463], [103.79710929931032, 1.348019397439995]]]}}, {"type": "Feature", "properties": {"fid": 3, "Forest_Name": "Clementi Forest"}, "geometry": {"type": "Polygon", "coordinates": [[[103.77830664007337, 1.3321707420898479], [103.77965110215631, 1.3318041696919025], [103.7806670877076, 1.3325144036633882], [103.78108723210852, 1.3324380344289672], [103.78179001910642, 1.332361665192178], [103.78224835845292, 1.3304906181516263], [103.78243933318059, 1.3279704300992454], [103.78140806965105, 1.3264812268601012], [103.78186640899753, 1.3257175325435782], [103.7817518241609, 1.324381066922902], [103.78194279888858, 1.3230446005815146], [103.78350879165565, 1.3211353617021901], [103.78400532594766, 1.319722523986765], [103.78224835845292, 1.3199516328600278], [103.78037680612155, 1.321899057430107], [103.77900178808218, 1.323044600581514], [103.77835247400803, 1.3229300462901692], [103.77564063287483, 1.3212499160763462], [103.77392186032561, 1.3209444377335247], [103.77418922494438, 1.3229300462901694], [103.77464756429082, 1.3240755889655276], [103.77564063287483, 1.3243810669229024], [103.77541146320159, 1.3255266089276345], [103.77697745596863, 1.3275503985072157], [103.77827608411694, 1.3303378795550262], [103.77827608411694, 1.331445234166082], [103.77830664007337, 1.3321707420898479]]]}}, {"type": "Feature", "properties": {"fid": 4, "Forest_Name": "Alexandra Forest"}, "geometry": {"type": "Polygon", "coordinates": [[[103.7951658890339, 1.2888460932440982], [103.79579228614072, 1.2896861693201407], [103.79724369407117, 1.290251311251651], [103.79798467601462, 1.2899381920888886], [103.79822148467694, 1.2895334282360256], [103.79863399008877, 1.289197397818711], [103.79799995399281, 1.2883802327551968], [103.79733536194045, 1.2878609127655174], [103.7964645171822, 1.2874256003396987], [103.79563950635857, 1.287822727467982], [103.7954485316309, 1.2885024256785615], [103.7951658890339, 1.2888460932440982]]]}}, {"type": "Feature", "properties": {"fid": 5, "Forest_Name": "Gillman Forest"}, "geometry": {"type": "Polygon", "coordinates": [[[103.80465351350551, 1.2748015077602561], [103.80530282757967, 1.2745189351045123], [103.80630353515278, 1.2746793141831994], [103.80651742684779, 1.2755728545815619], [103.80625770121812, 1.2769017089590546], [103.80639520302206, 1.2779021678359799], [103.80696048821603, 1.2783985785844791], [103.80605908750134, 1.278765158767919], [103.80540213443805, 1.2788568038055985], [103.80499726801537, 1.27797853872661], [103.8045160117016, 1.2773141119020768], [103.80511185285198, 1.277123184621868], [103.80469934744018, 1.276344201171645], [103.80465351350551, 1.2748015077602561]]]}}, {"type": "Feature", "properties": {"fid": 7, "Forest_Name": "Bukit Brown"}, "geometry": {"type": "Polygon", "coordinates": [[[103.82229910822117, 1.3302299490747114], [103.82344495658728, 1.3323682886597736], [103.82608040782944, 1.3347739184741556], [103.82917419841802, 1.3372559150222798], [103.83100755580382, 1.3369504386593984], [103.8309693608583, 1.3346975493098465], [103.82963253776445, 1.333704749958057], [103.82680611179465, 1.3321009963130874], [103.8254692887008, 1.3311081959144326], [103.82630957750267, 1.3301153951160447], [103.82608040782944, 1.329275332590027], [103.8250491442999, 1.3286261931696146], [103.8230630071319, 1.329466255916498], [103.82229910822117, 1.3302299490747114]]]}}, {"type": "Feature", "properties": {"fid": 8, "Forest_Name": "Woodlands N1"}, "geometry": {"type": "Polygon", "coordinates": [[[103.77151969202697, 1.439898347535819], [103.77226067397044, 1.4404787273119153], [103.77313915771781, 1.4406238222328422], [103.77339124435836, 1.4405245467616274], [103.77333013244548, 1.440142717985875], [103.77371208190087, 1.4401961740183318], [103.77370444291176, 1.4389514117944442], [103.77369680392266, 1.438791043605761], [103.77300929490299, 1.4386230388245727], [103.77228359093773, 1.438271756060293], [103.77169538877644, 1.4377906513171237], [103.77151205303787, 1.4377677415649195], [103.77151969202697, 1.439898347535819]]]}}, {"type": "Feature", "properties": {"fid": 9, "Forest_Name": "Tengah Forest"}, "geometry": {"type": "Polygon", "coordinates": [[[103.71480019790275, 1.3660361988123462], [103.71476200295719, 1.3667616964208125], [103.71858149751102, 1.3680217706934639], [103.72438712923285, 1.3705419172527789], [103.72538019781683, 1.3703891811731141], [103.72904691258849, 1.3698164207876329], [103.73034554073679, 1.368785451748783], [103.72763369960359, 1.3636687840405355], [103.72633507145528, 1.3633251268638904], [103.72511283319807, 1.3599649207760196], [103.72347045053992, 1.3595830788788854], [103.72343225559437, 1.3570247366109962], [103.72018568522363, 1.358819394903445], [103.72072041446117, 1.36038494679309], [103.71678633507071, 1.3631342061890008], [103.71480019790275, 1.3660361988123462]]]}}, {"type": "Feature", "properties": {"fid": 10, "Forest_Name": "Tengah Forest"}, "geometry": {"type": "Polygon", "coordinates": [[[103.73149138910296, 1.3690909241028169], [103.73385947572633, 1.3684417953039798], [103.73366850099862, 1.3651579645721688], [103.73015456600912, 1.3650434122563166], [103.73149138910296, 1.3690909241028169]]]}}, {"type": "Feature", "properties": {"fid": 11, "Forest_Name": "Bukit Brown"}, "geometry": {"type": "Polygon", "coordinates": [[[103.82748292622975, 1.3279434510536878], [103.82755167713174, 1.3290660806069692], [103.82854474571572, 1.3300817926202093], [103.8288350273018, 1.3298679585468909], [103.82919405978987, 1.3295624812671567], [103.8294385074413, 1.3294173795460404], [103.82915586484434, 1.3275310563958291], [103.8287204424652, 1.327523419457072], [103.82748292622975, 1.3279434510536878]]]}}, {"type": "Feature", "properties": {"fid": 12, "Forest_Name": "Sembawang Forest"}, "geometry": {"type": "Polygon", "coordinates": [[[103.82091339559723, 1.456355111280452], [103.82183007429015, 1.4571798554541453], [103.8221967457673, 1.4569660329195868], [103.82317453637309, 1.456851485124867], [103.82382385044724, 1.456935486841564], [103.82323564828594, 1.4561718347564152], [103.82361759774133, 1.4558587373267098], [103.82451135946692, 1.4554998207074556], [103.82550442805093, 1.4556143685708718], [103.82548915007271, 1.4550339926696216], [103.82399954719672, 1.4536288714483043], [103.82327384323148, 1.454652166337358], [103.82283842085236, 1.4550950848767856], [103.82203632699604, 1.4545987106456844], [103.82129534505262, 1.4543085225830734], [103.82056964108736, 1.454675075919116], [103.82022588657755, 1.4550721752992932], [103.8202946374795, 1.4557823720933551], [103.82091339559723, 1.456355111280452]]]}}, {"type": "Feature", "properties": {"fid": 13, "Forest_Name": "Upper Bukit Timah"}, "geometry": {"type": "Polygon", "coordinates": [[[103.76831895559094, 1.3464782284777554], [103.76883840685025, 1.347020446883453], [103.76931202417492, 1.3466996979819805], [103.76982383644517, 1.3471273631745624], [103.77040439961732, 1.3465011391170567], [103.770664125247, 1.3460505631712765], [103.77033564871537, 1.3455847133770833], [103.76976272453227, 1.3461727532664962], [103.76952591586996, 1.346188027027969], [103.76900646461063, 1.3455312551982879], [103.76864743212258, 1.346302580235959], [103.76831895559094, 1.3464782284777554]]]}}, {"type": "Feature", "properties": {"fid": 14, "Forest_Name": "Bukit Batok Driving Centre"}, "geometry": {"type": "Polygon", "coordinates": [[[103.7472964575668, 1.3664256765030807], [103.74804507849935, 1.3665784128351504], [103.74803743951026, 1.3676628405134839], [103.74888536730118, 1.367716298203266], [103.74909162000709, 1.3678308503916476], [103.74925967776747, 1.3680217706934648], [103.74896175719228, 1.368319606333961], [103.74857216874776, 1.3684876161661323], [103.74815202434684, 1.3683577903877602], [103.74765549005487, 1.3679224921384163], [103.74790757669541, 1.3676857509521076], [103.74747979330539, 1.3671740844374043], [103.74728881857767, 1.367013711328257], [103.74722006767573, 1.3669602536228276], [103.7472964575668, 1.3664256765030807]]]}}, {"type": "Feature", "properties": {"fid": 15, "Forest_Name": "Springleaf Forest"}, "geometry": {"type": "Polygon", "coordinates": [[[103.81264800938277, 1.4019136999619897], [103.81264800938277, 1.4020740707101162], [103.81315218266387, 1.4019595201768607], [103.8142903920409, 1.4021962579394105], [103.814794565322, 1.402165711132685], [103.81581818986241, 1.402074070710116], [103.816284168198, 1.4020053403908361], [103.81700223317411, 1.4017609659059405], [103.81691820429391, 1.401402040835013], [103.81535221152687, 1.401272216859641], [103.81401538843305, 1.401142392877073], [103.81302995883816, 1.4009896587707227], [103.81264800938277, 1.4019136999619897]]]}}, {"type": "Feature", "properties": {"fid": 16, "Forest_Name": "Gallop Road Forest"}, "geometry": {"type": "Polygon", "coordinates": [[[103.80813336682017, 1.3102256928988114], [103.80783544624497, 1.3108595631422164], [103.80803405996177, 1.3118523716346628], [103.80856878919931, 1.312669529098273], [103.80898129461109, 1.3136852478162606], [103.8091722693388, 1.3143114802035538], [103.809684081609, 1.3137616176279951], [103.81074590109498, 1.3124251455857363], [103.81147924404932, 1.3121120291754005], [103.81022644983564, 1.311439974308694], [103.80966116464171, 1.311050487882884], [103.80895837764379, 1.3103707957397728], [103.8083625364934, 1.3099125762133634], [103.80831670255874, 1.3098820282419554], [103.80813336682017, 1.3102256928988114]]]}}, {"type": "Feature", "properties": {"fid": 17, "Forest_Name": "Marsiling Park Forest"}, "geometry": {"type": "Polygon", "coordinates": [[[103.76902174258905, 1.4321013891347076], [103.76886896280689, 1.4333767014848815], [103.7688460458396, 1.4335905262405486], [103.76908285450193, 1.4340105390953208], [103.76947244294642, 1.4343312761325195], [103.7698773093691, 1.4346138301518516], [103.76996133824929, 1.4346901960970329], [103.77053426243236, 1.434445825063481], [103.7709544068333, 1.4339036267396], [103.77129816134313, 1.4332086963057074], [103.77124468841937, 1.4325443120673305], [103.77018286893343, 1.4322999408047468], [103.76902174258905, 1.4321013891347076]]]}}, {"type": "Feature", "properties": {"fid": 18, "Forest_Name": "Admiralty Road West"}, "geometry": {"type": "Polygon", "coordinates": [[[103.78742253955151, 1.4510248129605352], [103.78891214242749, 1.4514524591350841], [103.78964548538184, 1.4517044648786455], [103.79000451786989, 1.451559370666086], [103.79018785360847, 1.4508568090841256], [103.79025660451046, 1.4502077030807812], [103.79082188970439, 1.4495280507130577], [103.79110453230139, 1.448405478378088], [103.79018785360847, 1.4481458357180077], [103.78985937707684, 1.447374544111191], [103.78989757202237, 1.4468399854178884], [103.79027188248865, 1.4459923278031368], [103.79027188248865, 1.4458014138822564], [103.79003507382633, 1.445770867653426], [103.78987465505507, 1.4459617815768753], [103.78917186805715, 1.4456639558492814], [103.78857602690677, 1.446649071568321], [103.78844616409195, 1.446916350953216], [103.78870588972158, 1.4471912668591091], [103.78911075614431, 1.4474814558347315], [103.7892024240136, 1.447954921978383], [103.78927881390469, 1.4484283880231377], [103.78898853231858, 1.4489247636089944], [103.78845380308104, 1.4488178519535386], [103.78842324712463, 1.449077494536608], [103.78911075614431, 1.4492607716361487], [103.78937812076308, 1.4499098779110542], [103.78917186805715, 1.4503069781286484], [103.78850727600478, 1.4502764319605375], [103.78806421463656, 1.450306978128648], [103.78794962979994, 1.4499480606273114], [103.78740726157328, 1.4506048032461172], [103.78742253955151, 1.4510248129605352]]]}}, {"type": "Feature", "properties": {"fid": 19, "Forest_Name": "Bahar Forest"}, "geometry": {"type": "Polygon", "coordinates": [[[103.69596856195479, 1.3568567259792548], [103.69478451864309, 1.3582695422916167], [103.69466993380647, 1.3589950422391832], [103.69638870635569, 1.3601023838442017], [103.69982625145423, 1.3620497764684978], [103.70101029476591, 1.3628516435623836], [103.70173599873114, 1.3637680627713218], [103.70265267742404, 1.3641499040054037], [103.70402769546334, 1.363157116670789], [103.70379852579009, 1.3623552496785933], [103.70200336334982, 1.3605605940149121], [103.69986444639967, 1.3576204105749459], [103.69787830923167, 1.3559021198956103], [103.69745816483076, 1.3560166726455292], [103.69596856195479, 1.3568567259792548]]]}}]}